STARLINK-2163_new
1 17749C 21017AD  21326.11249906  .00007563  00000-0  50669-3 0  3262
2 17749  53.0563  43.2252 0001080  77.5247 337.7079 15.06396411    17
STARLINK-2163_old
1 27749C 21017AD  21325.15156701  .00006657  00000-0  44615-3 0  3251
2 27749  53.0561  47.5387 0001111  80.1769 161.0285 15.06383784    11
